     2              NAVIGATION DATA                         RINEX VERSION / TYPE
CCRINEXN V1.6.0 UX  CDDIS               01-FEB-16 15:33     PGM / RUN BY / DATE 
IGS BROADCAST EPHEMERIS FILE                                COMMENT             
    0.1211D-07 -0.7451D-08 -0.5960D-07  0.5960D-07          ION ALPHA           
    0.1147D+06 -0.1311D+06 -0.2621D+06  0.7209D+06          ION BETA            
    0.465661287308D-08 0.799360577730D-14   233472     1882 DELTA-UTC: A0,A1,T,W
    17                                                      LEAP SECONDS        
                                                            END OF HEADER       
 6 16  1 31 14  0  0.0 0.138049013913D-03 0.613908923697D-11 0.000000000000D+00
    0.102000000000D+03-0.303125000000D+02 0.476055543910D-08 0.121445124505D-01
   -0.164285302162D-05 0.270281219855D-03 0.629946589470D-05 0.515362511063D+04
    0.504000000000D+05-0.931322574616D-08-0.161041230345D+00-0.391155481338D-07
    0.963861219317D+00 0.261312500000D+03-0.223053173337D+01-0.817355474708D-08
    0.367872466222D-10 0.000000000000D+00 0.188200000000D+04 0.000000000000D+00
    0.200000000000D+01 0.000000000000D+00 0.419095158577D-08 0.102000000000D+03
    0.432000000000D+05 0.400000000000D+01 0.000000000000D+00 0.000000000000D+00
 7 16  1 31 14  0  0.0 0.471568666398D-03-0.159161572810D-11 0.000000000000D+00
    0.290000000000D+02 0.187187500000D+02 0.434518099423D-08-0.183968066976D+01
    0.841915607452D-06 0.903592770919D-02 0.539980828762D-05 0.515367680550D+04
    0.504000000000D+05 0.298023223877D-07 0.300668279597D+01-0.119209289551D-06
    0.967920031400D+00 0.278968750000D+03-0.267993098019D+01-0.800640492747D-08
   -0.560737642688D-10 0.000000000000D+00 0.188200000000D+04 0.000000000000D+00
    0.200000000000D+01 0.000000000000D+00-0.111758708954D-07 0.290000000000D+02
    0.432000000000D+05 0.400000000000D+01 0.000000000000D+00 0.000000000000D+00
 8 16  1 31 14  0  0.0-0.221119262278D-04-0.136424205266D-11 0.000000000000D+00
    0.580000000000D+02-0.142187500000D+02 0.446840041253D-08 0.220715672798D+01
   -0.715255737305D-06 0.178617110942D-02 0.724755227566D-05 0.515364283752D+04
    0.504000000000D+05 0.316649675369D-07-0.121202848594D+01-0.484287738800D-07
    0.961843492482D+00 0.239531250000D+03-0.142840194475D+01-0.805319259065D-08
    0.250010413937D-09 0.000000000000D+00 0.188200000000D+04 0.000000000000D+00
    0.200000000000D+01 0.000000000000D+00 0.465661287308D-08 0.580000000000D+02
    0.432000000000D+05 0.400000000000D+01 0.000000000000D+00 0.000000000000D+00
 9 16  1 31 14  0  0.0 0.612223520875D-04 0.773070496507D-11 0.000000000000D+00
    0.101000000000D+03 0.493750000000D+02 0.461054919074D-08 0.998526717766D+00
    0.246055424213D-05 0.622092047706D-03 0.793486833572D-05 0.515364930916D+04
    0.504000000000D+05-0.223517417908D-07 0.192910360885D+01-0.130385160446D-07
    0.955398699048D+00 0.222625000000D+03 0.188070595440D+01-0.809105131048D-08
   -0.392873507616D-10 0.000000000000D+00 0.188200000000D+04 0.000000000000D+00
    0.200000000000D+01 0.000000000000D+00 0.139698386192D-08 0.101000000000D+03
    0.438600000000D+05 0.400000000000D+01 0.000000000000D+00 0.000000000000D+00
10 16  1 31 14  0  0.0 0.476283021271D-04-0.250111042988D-11 0.000000000000D+00
    0.730000000000D+02-0.150937500000D+02 0.464055044041D-08 0.304366958261D+01
   -0.739470124245D-06 0.108012778219D-02 0.982172787190D-05 0.515368638611D+04
    0.504000000000D+05 0.558793544769D-08 0.884087575236D+00-0.521540641785D-07
    0.959462176377D+00 0.190562500000D+03-0.292529248697D+01-0.798390399022D-08
   -0.150720563831D-09 0.100000000000D+01 0.188200000000D+04 0.000000000000D+00
    0.200000000000D+01 0.000000000000D+00 0.232830643654D-08 0.730000000000D+02
    0.466920000000D+05 0.400000000000D+01 0.000000000000D+00 0.000000000000D+00
11 16  1 31 14  0  0.0-0.630001537502D-03-0.193267624127D-11 0.000000000000D+00
    0.860000000000D+02-0.107812500000D+02 0.615061334059D-08-0.172089893391D+01
   -0.230967998505D-06 0.162174446741D-01 0.539422035217D-05 0.515364935684D+04
    0.504000000000D+05 0.206753611565D-06-0.521150828938D+00 0.314787030220D-06
    0.895708371792D+00 0.237000000000D+03 0.149863924135D+01-0.879322341591D-08
    0.222866426138D-09 0.000000000000D+00 0.188200000000D+04 0.000000000000D+00
    0.200000000000D+01 0.000000000000D+00-0.121071934700D-07 0.860000000000D+02
    0.432000000000D+05 0.400000000000D+01 0.000000000000D+00 0.000000000000D+00
12 16  1 31 14  0  0.0 0.364835374057D-03 0.261479726760D-11 0.000000000000D+00
    0.370000000000D+02-0.277187500000D+02 0.366658129926D-08-0.222092466695D+01
   -0.143423676491D-05 0.578088324983D-02 0.845268368721D-05 0.515379459953D+04
    0.504000000000D+05 0.186264514923D-07-0.220323744610D+01-0.465661287308D-07
    0.990279863806D+00 0.231156250000D+03 0.664272924948D+00-0.764924719328D-08
   -0.207151485834D-10 0.000000000000D+00 0.188200000000D+04 0.000000000000D+00
    0.200000000000D+01 0.000000000000D+00-0.121071934700D-07 0.370000000000D+02
    0.437400000000D+05 0.400000000000D+01 0.000000000000D+00 0.000000000000D+00
13 16  1 31 14  0  0.0-0.182191375643D-03-0.261479726760D-11 0.000000000000D+00
    0.860000000000D+02 0.590937500000D+02 0.438446834499D-08-0.882907581125D+00
    0.315718352795D-05 0.466443225741D-02 0.750832259655D-05 0.515368387794D+04
    0.504000000000D+05-0.428408384323D-07 0.204806528509D+01 0.204890966415D-07
    0.971946935777D+00 0.239000000000D+03 0.198440016406D+01-0.804997817105D-08
    0.342871424828D-10 0.100000000000D+01 0.188200000000D+04 0.000000000000D+00
    0.200000000000D+01 0.000000000000D+00-0.111758708954D-07 0.860000000000D+02
    0.432180000000D+05 0.400000000000D+01 0.000000000000D+00 0.000000000000D+00
14 16  1 31 14  0  0.0 0.586267560720D-05-0.227373675443D-11 0.000000000000D+00
    0.890000000000D+02 0.573125000000D+02 0.450661641338D-08 0.946444692432D+00
    0.300072133541D-05 0.829725491349D-02 0.841729342937D-05 0.515372012901D+04
    0.504000000000D+05-0.100582838059D-06 0.201177599585D+01 0.279396772385D-07
    0.964418573550D+00 0.221562500000D+03-0.194891449522D+01-0.820712742211D-08
   -0.360729328353D-10 0.100000000000D+01 0.188200000000D+04 0.000000000000D+00
    0.200000000000D+01 0.000000000000D+00-0.931322574616D-08 0.890000000000D+02
    0.432000000000D+05 0.000000000000D+00 0.000000000000D+00 0.000000000000D+00
15 16  1 31 14  0  0.0-0.294942874461D-03-0.181898940355D-11 0.000000000000D+00
    0.330000000000D+02 0.620000000000D+02 0.528914888571D-08 0.143750928420D+00
    0.328198075295D-05 0.805066910107D-02 0.777654349804D-05 0.515379179382D+04
    0.504000000000D+05 0.931322574615D-07 0.187940081350D+01 0.111758708954D-06
    0.931154048841D+00 0.210187500000D+03 0.476190812539D+00-0.853428405861D-08
   -0.253581991279D-10 0.100000000000D+01 0.188200000000D+04 0.000000000000D+00
    0.200000000000D+01 0.000000000000D+00-0.107102096081D-07 0.330000000000D+02
    0.433080000000D+05 0.400000000000D+01 0.000000000000D+00 0.000000000000D+00
16 16  1 31 14  0  0.0-0.436841510236D-04 0.318323145621D-11 0.000000000000D+00
    0.780000000000D+02-0.287500000000D+02 0.370551149228D-08 0.198249350782D+01
   -0.143237411976D-05 0.847898772918D-02 0.802800059318D-05 0.515370431137D+04
    0.504000000000D+05-0.949949026108D-07-0.218448196442D+01 0.409781932831D-07
    0.990789348433D+00 0.242843750000D+03 0.320523721477D+00-0.776818071876D-08
   -0.113576159474D-09 0.100000000000D+01 0.188200000000D+04 0.000000000000D+00
    0.200000000000D+01 0.000000000000D+00-0.102445483208D-07 0.780000000000D+02
    0.432480000000D+05 0.400000000000D+01 0.000000000000D+00 0.000000000000D+00
17 16  1 31 14  0  0.0-0.199894886464D-03-0.795807864051D-12 0.000000000000D+00
    0.690000000000D+02-0.243750000000D+01 0.427232081645D-08 0.101150805008D+01
   -0.165775418282D-06 0.109745402588D-01 0.760331749916D-05 0.515363317871D+04
    0.504000000000D+05-0.203028321266D-06-0.116101996599D+01 0.186264514923D-07
    0.975006911283D+00 0.239843750000D+03-0.195734209271D+01-0.814283918194D-08
    0.217866217860D-09 0.000000000000D+00 0.188200000000D+04 0.000000000000D+00
    0.280000000000D+01 0.000000000000D+00-0.107102096081D-07 0.690000000000D+02
    0.432000000000D+05 0.400000000000D+01 0.000000000000D+00 0.000000000000D+00
18 16  1 31 14  0  0.0 0.478683039546D-03 0.397903932026D-11 0.000000000000D+00
    0.720000000000D+02-0.255937500000D+02 0.528343436196D-08 0.256533733742D+01
   -0.140815973282D-05 0.165723123355D-01 0.928156077862D-05 0.515366037750D+04
    0.504000000000D+05 0.152736902237D-06 0.859285832658D+00-0.208616256714D-06
    0.924956902568D+00 0.176625000000D+03-0.191536975001D+01-0.806890753096D-08
   -0.225723688012D-09 0.100000000000D+01 0.188200000000D+04 0.000000000000D+00
    0.200000000000D+01 0.000000000000D+00-0.111758708954D-07 0.720000000000D+02
    0.432180000000D+05 0.400000000000D+01 0.000000000000D+00 0.000000000000D+00
19 16  1 31 14  0  0.0-0.524681527168D-03-0.113686837722D-12 0.000000000000D+00
    0.860000000000D+02-0.375000000000D+00 0.428875007223D-08-0.182421885159D+01
   -0.193715095520D-06 0.112508948660D-01 0.686384737492D-05 0.515519420242D+04
    0.504000000000D+05 0.856816768646D-07-0.111195015335D+01-0.100582838059D-06
    0.972109087080D+00 0.247062500000D+03 0.675726286141D+00-0.787461372356D-08
    0.424660545959D-09 0.000000000000D+00 0.188200000000D+04 0.000000000000D+00
    0.200000000000D+01 0.000000000000D+00-0.153668224812D-07 0.860000000000D+02
    0.432000000000D+05 0.400000000000D+01 0.000000000000D+00 0.000000000000D+00
